STARLINK-35223          
1 65494U 25198C   26031.91670139 -.01398626  00000+0 -37908-1 0  9995
2 65494  53.1573  81.9469 0001711  85.2200  71.1242 15.40032083  5635
STARLINK-34446          
1 65495U 25198D   26031.98594203  .00039451  00000+0  99029-3 0  9999
2 65495  53.1573  81.9800 0001663  85.3503 274.7692 15.39646742 22997
STARLINK-35212          
1 65496U 25198E   26031.91670139 -.01281181  00000+0 -46032-1 0  9992
2 65496  53.1594  81.9150 0000310  21.2790 150.7719 15.31047932  5840
STARLINK-34455          
1 65497U 25198F   26031.91670139  .00040247  00000+0  10115-2 0  9990
2 65497  53.1579  82.2060 0001182  96.4556 289.3391 15.39599423  5851
STARLINK-35203          
1 65498U 25198G   26031.40635828  .00051317  00000+0  12836-2 0  9993
2 65498  53.1584  84.7594 0001509 102.2672 257.8502 15.39636044 22905
STARLINK-35166          
1 65499U 25198H   26031.91670139  .00036712  00000+0  12468-2 0  9997
2 65499  53.1588  82.1208 0001265  83.4248 344.3523 15.30165366  5891
STARLINK-35207          
1 65500U 25198J   26031.44341039  .00033051  00000+0  83270-3 0  9995
2 65500  53.1578  84.2807 0001751  96.0432 264.0773 15.39618443 22911
STARLINK-35140          
1 65501U 25198K   26031.91670139  .00039196  00000+0  98558-3 0  9995
2 65501  53.1575  82.1538 0001429 100.8338 310.7248 15.39596827  5747
STARLINK-35114          
1 65502U 25198L   26031.41100012  .00049019  00000+0  12275-2 0  9995
2 65502  53.1583  84.7894 0001515  92.7209 267.3969 15.39621351 22907
STARLINK-35126          
1 65503U 25198M   26031.46231467  .00024015  00000+0  60828-3 0  9997
2 65503  53.1587  84.3964 0001363 104.5662 255.5495 15.39629225 22914
STARLINK-35182          
1 65504U 25198N   26031.91670139  .00027185  00000+0  92713-3 0  9990
2 65504  53.1581  82.0507 0001192  96.5608   6.0998 15.30181908  5849
STARLINK-35072          
1 65505U 25198P   26031.55963496  .00047106  00000+0  11809-2 0  9993
2 65505  53.1571  83.5796 0001406 105.8068 254.3092 15.39606897 22937
STARLINK-35184          
1 65506U 25198Q   26031.41133719  .00042000  00000+0  10531-2 0  9995
2 65506  53.1588  84.7915 0001518  69.1254 290.9913 15.39650331 22902
STARLINK-35163          
1 65507U 25198R   26031.53187348  .00042477  00000+0  10654-2 0  9990
2 65507  53.1586  84.1192 0001753  89.1743 270.9463 15.39636378 22923
STARLINK-35119          
1 65508U 25198S   26031.91670139  .00043331  00000+0  10881-2 0  9990
2 65508  53.1581  82.3565 0001548 112.1110 196.4355 15.39592726  5897
STARLINK-35168          
1 65509U 25198T   26031.85145957  .00050084  00000+0  12528-2 0  9992
2 65509  53.1588  82.5578 0002398  75.0112 285.1159 15.39644917 22970
