[{"OBJECT_NAME":"STARLINK-35223","OBJECT_ID":"2025-198C","EPOCH":"2026-01-31T22:00:03.000096","MEAN_MOTION":15.40032083,"ECCENTRICITY":0.00017118,"INCLINATION":53.1573,"RA_OF_ASC_NODE":81.9469,"ARG_OF_PERICENTER":85.22,"MEAN_ANOMALY":71.1242,"EPHEMERIS_TYPE":0,"CLASSIFICATION_TYPE":"U","NORAD_CAT_ID":65494,"ELEMENT_SET_NO":999,"REV_AT_EPOCH":563,"BSTAR":-0.037907615,"MEAN_MOTION_DOT":-0.01398626,"MEAN_MOTION_DDOT":0},{"OBJECT_NAME":"STARLINK-34446","OBJECT_ID":"2025-198D","EPOCH":"2026-01-31T23:39:45.391392","MEAN_MOTION":15.39646742,"ECCENTRICITY":0.00016633,"INCLINATION":53.1573,"RA_OF_ASC_NODE":81.98,"ARG_OF_PERICENTER":85.3503,"MEAN_ANOMALY":274.7692,"EPHEMERIS_TYPE":0,"CLASSIFICATION_TYPE":"U","NORAD_CAT_ID":65495,"ELEMENT_SET_NO":999,"REV_AT_EPOCH":2299,"BSTAR":0.00099028562,"MEAN_MOTION_DOT":0.00039451,"MEAN_MOTION_DDOT":0},{"OBJECT_NAME":"STARLINK-35212","OBJECT_ID":"2025-198E","EPOCH":"2026-01-31T22:00:03.000096","MEAN_MOTION":15.31047932,"ECCENTRICITY":3.103e-5,"INCLINATION":53.1594,"RA_OF_ASC_NODE":81.915,"ARG_OF_PERICENTER":21.279,"MEAN_ANOMALY":150.7719,"EPHEMERIS_TYPE":0,"CLASSIFICATION_TYPE":"U","NORAD_CAT_ID":65496,"ELEMENT_SET_NO":999,"REV_AT_EPOCH":584,"BSTAR":-0.046031708,"MEAN_MOTION_DOT":-0.01281181,"MEAN_MOTION_DDOT":0},{"OBJECT_NAME":"STARLINK-34455","OBJECT_ID":"2025-198F","EPOCH":"2026-01-31T22:00:03.000096","MEAN_MOTION":15.39599423,"ECCENTRICITY":0.00011824,"INCLINATION":53.1579,"RA_OF_ASC_NODE":82.206,"ARG_OF_PERICENTER":96.4556,"MEAN_ANOMALY":289.3391,"EPHEMERIS_TYPE":0,"CLASSIFICATION_TYPE":"U","NORAD_CAT_ID":65497,"ELEMENT_SET_NO":999,"REV_AT_EPOCH":585,"BSTAR":0.0010115254,"MEAN_MOTION_DOT":0.00040247,"MEAN_MOTION_DDOT":0},{"OBJECT_NAME":"STARLINK-35203","OBJECT_ID":"2025-198G","EPOCH":"2026-01-31T09:45:09.355392","MEAN_MOTION":15.39636044,"ECCENTRICITY":0.00015093,"INCLINATION":53.1584,"RA_OF_ASC_NODE":84.7594,"ARG_OF_PERICENTER":102.2672,"MEAN_ANOMALY":257.8502,"EPHEMERIS_TYPE":0,"CLASSIFICATION_TYPE":"U","NORAD_CAT_ID":65498,"ELEMENT_SET_NO":999,"REV_AT_EPOCH":2290,"BSTAR":0.0012836104,"MEAN_MOTION_DOT":0.00051317,"MEAN_MOTION_DDOT":0},{"OBJECT_NAME":"STARLINK-35166","OBJECT_ID":"2025-198H","EPOCH":"2026-01-31T22:00:03.000096","MEAN_MOTION":15.30165366,"ECCENTRICITY":0.0001265,"INCLINATION":53.1588,"RA_OF_ASC_NODE":82.1208,"ARG_OF_PERICENTER":83.4248,"MEAN_ANOMALY":344.3523,"EPHEMERIS_TYPE":0,"CLASSIFICATION_TYPE":"U","NORAD_CAT_ID":65499,"ELEMENT_SET_NO":999,"REV_AT_EPOCH":589,"BSTAR":0.0012468445,"MEAN_MOTION_DOT":0.00036712,"MEAN_MOTION_DDOT":0},{"OBJECT_NAME":"STARLINK-35207","OBJECT_ID":"2025-198J","EPOCH":"2026-01-31T10:38:30.657696","MEAN_MOTION":15.39618443,"ECCENTRICITY":0.00017517,"INCLINATION":53.1578,"RA_OF_ASC_NODE":84.2807,"ARG_OF_PERICENTER":96.0432,"MEAN_ANOMALY":264.0773,"EPHEMERIS_TYPE":0,"CLASSIFICATION_TYPE":"U","NORAD_CAT_ID":65500,"ELEMENT_SET_NO":999,"REV_AT_EPOCH":2291,"BSTAR":0.00083269997,"MEAN_MOTION_DOT":0.00033051,"MEAN_MOTION_DDOT":0},{"OBJECT_NAME":"STARLINK-35140","OBJECT_ID":"2025-198K","EPOCH":"2026-01-31T22:00:03.000096","MEAN_MOTION":15.39596827,"ECCENTRICITY":0.00014293,"INCLINATION":53.1575,"RA_OF_ASC_NODE":82.1538,"ARG_OF_PERICENTER":100.8338,"MEAN_ANOMALY":310.7248,"EPHEMERIS_TYPE":0,"CLASSIFICATION_TYPE":"U","NORAD_CAT_ID":65501,"ELEMENT_SET_NO":999,"REV_AT_EPOCH":574,"BSTAR":0.00098558285,"MEAN_MOTION_DOT":0.00039196,"MEAN_MOTION_DDOT":0},{"OBJECT_NAME":"STARLINK-35114","OBJECT_ID":"2025-198L","EPOCH":"2026-01-31T09:51:50.410368","MEAN_MOTION":15.39621351,"ECCENTRICITY":0.00015152,"INCLINATION":53.1583,"RA_OF_ASC_NODE":84.7894,"ARG_OF_PERICENTER":92.7209,"MEAN_ANOMALY":267.3969,"EPHEMERIS_TYPE":0,"CLASSIFICATION_TYPE":"U","NORAD_CAT_ID":65502,"ELEMENT_SET_NO":999,"REV_AT_EPOCH":2290,"BSTAR":0.0012275338,"MEAN_MOTION_DOT":0.00049019,"MEAN_MOTION_DDOT":0},{"OBJECT_NAME":"STARLINK-35126","OBJECT_ID":"2025-198M","EPOCH":"2026-01-31T11:05:43.987488","MEAN_MOTION":15.39629225,"ECCENTRICITY":0.00013638,"INCLINATION":53.1587,"RA_OF_ASC_NODE":84.3964,"ARG_OF_PERICENTER":104.5662,"MEAN_ANOMALY":255.5495,"EPHEMERIS_TYPE":0,"CLASSIFICATION_TYPE":"U","NORAD_CAT_ID":65503,"ELEMENT_SET_NO":999,"REV_AT_EPOCH":2291,"BSTAR":0.00060827908,"MEAN_MOTION_DOT":0.00024015,"MEAN_MOTION_DDOT":0},{"OBJECT_NAME":"STARLINK-35182","OBJECT_ID":"2025-198N","EPOCH":"2026-01-31T22:00:03.000096","MEAN_MOTION":15.30181908,"ECCENTRICITY":0.00011921,"INCLINATION":53.1581,"RA_OF_ASC_NODE":82.0507,"ARG_OF_PERICENTER":96.5608,"MEAN_ANOMALY":6.0998,"EPHEMERIS_TYPE":0,"CLASSIFICATION_TYPE":"U","NORAD_CAT_ID":65504,"ELEMENT_SET_NO":999,"REV_AT_EPOCH":584,"BSTAR":0.000927129,"MEAN_MOTION_DOT":0.00027185,"MEAN_MOTION_DDOT":0},{"OBJECT_NAME":"STARLINK-35072","OBJECT_ID":"2025-198P","EPOCH":"2026-01-31T13:25:52.460544","MEAN_MOTION":15.39606897,"ECCENTRICITY":0.00014067,"INCLINATION":53.1571,"RA_OF_ASC_NODE":83.5796,"ARG_OF_PERICENTER":105.8068,"MEAN_ANOMALY":254.3092,"EPHEMERIS_TYPE":0,"CLASSIFICATION_TYPE":"U","NORAD_CAT_ID":65505,"ELEMENT_SET_NO":999,"REV_AT_EPOCH":2293,"BSTAR":0.0011808742,"MEAN_MOTION_DOT":0.00047106,"MEAN_MOTION_DDOT":0},{"OBJECT_NAME":"STARLINK-35184","OBJECT_ID":"2025-198Q","EPOCH":"2026-01-31T09:52:19.533216","MEAN_MOTION":15.39650331,"ECCENTRICITY":0.00015188,"INCLINATION":53.1588,"RA_OF_ASC_NODE":84.7915,"ARG_OF_PERICENTER":69.1254,"MEAN_ANOMALY":290.9913,"EPHEMERIS_TYPE":0,"CLASSIFICATION_TYPE":"U","NORAD_CAT_ID":65506,"ELEMENT_SET_NO":999,"REV_AT_EPOCH":2290,"BSTAR":0.0010531361,"MEAN_MOTION_DOT":0.00042,"MEAN_MOTION_DDOT":0},{"OBJECT_NAME":"STARLINK-35163","OBJECT_ID":"2025-198R","EPOCH":"2026-01-31T12:45:53.868672","MEAN_MOTION":15.39636378,"ECCENTRICITY":0.00017531,"INCLINATION":53.1586,"RA_OF_ASC_NODE":84.1192,"ARG_OF_PERICENTER":89.1743,"MEAN_ANOMALY":270.9463,"EPHEMERIS_TYPE":0,"CLASSIFICATION_TYPE":"U","NORAD_CAT_ID":65507,"ELEMENT_SET_NO":999,"REV_AT_EPOCH":2292,"BSTAR":0.0010654108,"MEAN_MOTION_DOT":0.00042477,"MEAN_MOTION_DDOT":0},{"OBJECT_NAME":"STARLINK-35119","OBJECT_ID":"2025-198S","EPOCH":"2026-01-31T22:00:03.000096","MEAN_MOTION":15.39592726,"ECCENTRICITY":0.00015481,"INCLINATION":53.1581,"RA_OF_ASC_NODE":82.3565,"ARG_OF_PERICENTER":112.111,"MEAN_ANOMALY":196.4355,"EPHEMERIS_TYPE":0,"CLASSIFICATION_TYPE":"U","NORAD_CAT_ID":65508,"ELEMENT_SET_NO":999,"REV_AT_EPOCH":589,"BSTAR":0.0010880617,"MEAN_MOTION_DOT":0.00043331,"MEAN_MOTION_DDOT":0},{"OBJECT_NAME":"STARLINK-35168","OBJECT_ID":"2025-198T","EPOCH":"2026-01-31T20:26:06.106848","MEAN_MOTION":15.39644917,"ECCENTRICITY":0.00023988,"INCLINATION":53.1588,"RA_OF_ASC_NODE":82.5578,"ARG_OF_PERICENTER":75.0112,"MEAN_ANOMALY":285.1159,"EPHEMERIS_TYPE":0,"CLASSIFICATION_TYPE":"U","NORAD_CAT_ID":65509,"ELEMENT_SET_NO":999,"REV_AT_EPOCH":2297,"BSTAR":0.0012527876,"MEAN_MOTION_DOT":0.00050084,"MEAN_MOTION_DDOT":0}]
